#dP2021  3 18  6  0  0.00000000      96 __u+U ITR00 EXT  IAC
## 2149 367200.00000000   900.00000000 59291 0.2500000000000
+  116   C06C07C08C09C10C11C12C13C14C16C19C20C21C22C23C24C25
+        C26C27C28C29C30C32C33C34C35C36C37C38C39C40C41C42C43
+        C44C45C46E01E02E03E04E05E07E08E09E11E12E13E14E15E18
+        E19E21E24E25E26E27E30E31E33G01G02G03G04G05G06G07G08
+        G09G10G11G12G13G14G15G16G17G18G19G20G21G22G23G24G25
+        G26G27G28G29G30G31G32J01J02J03R01R02R03R04R05R07R08
+        R09R11R12R13R14R15R16R17R18R19R20R21R22R24  0  0  0
++        13  9 10  9 10  9  9  7 10 11 10  9  8  8  9  9  9
++        10 10 10  8  8  8 10  9  9  9  8 11 11 10 10  9 10
++         8  9  9  9  8  8  8  8  9  9  9  8  9  7  9  9  8
++         7  8  8  9  8  8  8  9  8  8  8  8  8  8  8  8  8
++         8  8  8  8  8  7  7  8  8  9  8  8  8  8  7  7  8
++         7  8  7  8  7  7  7  9 10 10  9  8  8  9  9  9  8
++         9  8  8  9  8  7  8  8  8  8  9  9 10  8  0  0  0
%c M  cc GPS ccc cccc cccc cccc cccc ccccc ccccc ccccc ccccc
%c cc cc ccc ccc cccc cccc cccc cccc ccccc ccccc ccccc ccccc
%f  0.0000000  0.000000000  0.00000000000  0.000000000000000
%f  0.0000000  0.000000000  0.00000000000  0.000000000000000
%i    0    0    0    0      0      0      0      0         0
%i    0    0    0    0      0      0      0      0         0
/* IAC                                ULTRA-RAPID PREDICTION
/* S/V CLOCKS ARE ALIGNED TO GNSS TIME                      
/* G:C1WC2W R:C1PC2P E:C1XC5X C:C2IC6I J:C1CC2S             
/* PCV:IGS14_2134 OL/AL:FES2004  NONE     YN ORB:CoN CLK:CoN
*  2021 03 18  9  0  0.00000000
PC06  -7421.036333  26262.309208 -31553.858592    188.369378
PC07 -23075.916993  26318.371993  23396.820385    -28.991242
PC08 -16914.961897  38079.027689   7727.388839   -899.498586
PC09   5796.697813  34240.263611 -23315.280770    660.328970
PC10  -8029.111633  28039.601799  30525.744540    -69.953375
PC11  -6969.532021  15845.805715  21958.732482   -862.099060
PC12 -17972.254491  -1954.131622  21290.888280    873.663874
PC13  -7842.161734  41035.375594  -6458.547133    184.940262
PC14 -17610.011221  13174.880845 -17114.640834    239.792963
PC16  -2966.500551  28802.402630 -30452.184190   -739.936583
PC19   7472.122579 -15698.601280  21861.844821    765.851159
PC20  23928.925737  -9309.658066  10987.564543   -932.122333
PC21 -26826.078540  -3045.060123   7038.585609   -891.167698
PC22 -13772.666542 -13199.666944  20365.226971   -921.725083
PC23   5170.672615  19857.456570  18912.469692   -878.412626
PC24 -18569.733294  16327.213266 -12976.059274   -786.162979
PC25  -8479.542460  26153.679833   4838.158230   -946.671941
PC26 -16948.651452  -1100.414474 -22157.905177    933.793684
PC27  20151.325736  11407.728005 -15574.211884    500.554882
PC28  14522.573283  23807.828035   1034.632479    -97.050988
PC29  -1232.286140 -22153.599565 -16934.860762    366.569130
PC30  13977.506331  -7661.019974 -22907.667619    453.278740
PC32  26871.965798   2808.304066  -6983.520017   -915.274180
PC33  -7447.697365  15737.927723 -21793.590758   -946.259687
PC34 -13612.120217   8282.882026  22903.185425   -716.373513
PC35 -15170.179899 -23410.546058  -1332.829484   -369.294570
PC36   9327.830911 -25908.213074  -4501.217592   -740.490773
PC37  16558.452830   2477.963500  22334.192848   -878.349331
PC38 -14923.638170  39265.195541   4336.103791    136.558388
PC39   -755.700966  29108.850613 -30440.281459     29.488548
PC40 -13781.600695  23054.709734  32473.936470    142.110765
PC41  13569.957841  13256.487426 -20411.733241   -933.173971
PC42 -24329.758390   8920.595592 -10289.881692   -939.943717
PC43    625.149235  21961.863675  17184.077157   -644.746940
PC44 -20616.099136 -10928.748429  15329.396001     91.778034
PC45  -5203.456817 -19723.742893 -19034.876009    389.827154
PC46  18270.038541 -17111.204025  12297.029558    357.640506
PE01 -15365.297660  21962.110830  12566.104082  -1067.988945
PE02  15243.239926 -21968.493587 -12681.094473    205.832950
PE03   6005.645280 -16021.358760  24154.832008   -410.173066
PE04  14902.117551  19294.928568 -16779.182128   -731.346490
PE05  23682.878111  -3295.343130  17452.798674   -296.106101
PE07 -27373.191030 -11234.672937   -628.913278   -514.232905
PE08 -15316.261854 -19087.719450  16646.371657   6031.418024
PE09  27481.353810  10989.465250    802.814575   5730.932687
PE11  15875.854239  12497.893440 -21625.618131   6194.220902
PE12   7693.421707  27880.668997  -6230.967407   5304.513334
PE13 -15777.878905 -12933.146564  21460.407821    413.715517
PE14  24883.935835  -1887.846695 -20594.971317  -1365.818817
PE15  -7804.041510 -27860.449513   6288.784400    824.068871
PE18 -19418.209849  -1635.189272  13422.563187  -1493.609924
PE19  -8376.457324  14821.152676 -24207.613081    229.741734
PE21 -25307.143989  14382.382013  -5402.814524   -654.262088
PE24  20519.556542   2610.888581  21146.192462   -798.961640
PE25  25330.616693 -14255.132844   5575.271893   -528.742205
PE26 -14435.746339  10354.134575  23684.050066   2028.576546
PE27 -20959.147235  -1845.380865 -20827.569031      7.976703
PE30  -3434.704312 -17410.507327 -23700.302947   3097.625104
PE31   4309.500838  16899.097523  23919.831095   -479.282529
PE33  -4770.223446  26359.507805  12587.521752   -466.644304
PG01 -13270.276817  13984.737127  17863.631111    738.511156
PG02  13372.435725  11147.601243 -19392.223549   -587.242642
PG03 -22770.018497  13167.720203  -3311.747823   -111.327467
PG04 -16789.400354   4893.436770 -20001.941476   -186.864620
PG05  23172.064660  -1360.722261 -13229.334879    -36.546912
PG06   6521.075523  22361.356584 -12646.588211      1.476347
PG07  -6916.498657  24452.920921  -6443.163214     93.681273
PG08 -21642.857579  -1706.064641  15503.133269    -14.177353
PG09  -6374.006709  14179.821879 -21590.125968   -332.012598
PG10  -1472.382569 -15647.919293  21486.590722    -83.418289
PG11 -13704.524854   8502.009183  20685.932679      4.375060
PG12  24670.346171  -9612.977896   -200.260671    -15.558905
PG13  22067.711840  11742.952488   9027.806578    109.198593
PG14   -649.931432  16249.169995  20986.068809     99.792818
PG15  21863.534890   -870.744604  14935.678062   -162.346381
PG16 -22000.092791  -2978.520591 -15162.276936   -295.800501
PG17   9806.495621  20188.516471  14629.120788    411.603472
PG18   5173.625163 -25790.534920  -3449.619332    350.735423
PG19  16361.258372  19882.607155   6432.851502    -24.827442
PG20  11844.956233 -19483.892194  13311.464499    524.084793
PG21 -15340.312534   5437.265692  21647.463743    104.047257
PG22 -24177.713942   8714.215540   6514.836250   -657.968248
PG23  10389.657266 -18009.581108  16482.633162    117.201652
PG24  14886.129529  -8402.501764  19992.028188      0.902744
PG25  16393.166867 -17025.228392 -12096.633675    101.109384
PG26 -14476.814241  -9179.794797 -20405.390049     59.692617
PG27 -23304.813974 -12047.829428   5104.546572    -96.171422
PG28   1695.207173  15400.346834  22149.633319    600.426385
PG29   6587.012260 -13445.563825 -21978.046050   -313.944677
PG30   1251.845768  25813.336247   5631.928022   -400.106875
PG31  -8319.977385 -20180.702262 -14883.620914   -106.287357
PG32 -12472.641669 -19680.751200  13008.071750     21.357216
PJ01 -31574.271190  15919.852099 -18400.972597   -356.088150
PJ02 -29246.965524  30411.796802   3789.771147      3.582003
PJ03 -25709.909543  22882.548907  29420.854107     -1.916117
PR01 -25281.273433   -947.631503  -3197.592997     76.557650
PR02 -13165.201000   8009.363751 -20301.471871    471.220418
PR03   5881.776230  11271.174832 -22059.132368     32.598177
PR04  21369.915985   7969.888096 -11386.632381     78.400596
PR05  24855.806840    391.213513   5681.974012     68.358808
PR07  -6642.871676 -11304.185433  21928.624496    -42.553927
PR08 -21373.576570  -8054.077598  11434.434415    -57.996697
PR09  14879.894228 -20758.857756   -422.848147    -16.545926
PR11  -8688.475134  -6553.409216 -23063.177367      2.165504
PR12 -17031.221801  10130.264245 -16056.590698    213.512986
PR13 -15042.921260  20602.513758   -166.959500    -52.159612
PR14  -4088.518629  18960.731369  16566.041604     62.133834
PR15   8970.001128   6380.958142  23024.206255    104.855100
PR16  16988.357220 -11122.407107  15324.211745    -12.665333
PR17   6923.980884  23734.298114   6352.685992    408.964270
PR18  13114.466252  19122.817955 -10545.164988     70.178919
PR19  12423.452988   5494.264245 -21586.569218   -136.172084
PR20   4093.611763 -14618.546249 -20504.591465    -45.489726
PR21  -7471.239658 -23822.618602  -5180.279960   -195.239899
PR22 -13211.898122 -18582.559499  11532.730084   -103.201203
PR24  -3893.053267  15377.215897  19997.019587     35.439098
EOF
